ONEWEB-0379             
1 49305U 21090AC  25007.44455072  .00000241  00000+0  61538-3 0  9990
2 49305  87.8987  34.2453 0001732  92.1390 267.9938 13.14503928158495
ONEWEB-0380             
1 49306U 21090AD  25007.62312469 -.00000846  00000+0 -21451-2 0  9995
2 49306  87.9157  49.4686 0001895  95.7859 264.3489 13.19719967157107
ONEWEB-0381             
1 49307U 21090AE  25007.48194783  .00000003  00000+0 -24149-4 0  9990
2 49307  87.9245  19.0307 0001967  88.3435 271.7923 13.20769999160434
ONEWEB-0382             
1 49308U 21090AF  25007.46932879  .00000015  00000+0  41928-5 0  9992
2 49308  87.9245  19.0287 0001810  76.5423 283.5912 13.20772068160424
ONEWEB-0383             
1 49309U 21090AG  25007.51432800  .00000300  00000+0  77386-3 0  9990
2 49309  87.8985  34.2154 0001656  87.4261 272.7058 13.14503386158534
ONEWEB-0384             
1 49310U 21090AH  25007.46617400  .00000077  00000+0  15780-3 0  9998
2 49310  87.9247  19.0439 0001811  73.9047 286.2286 13.20772144160432
ONEWEB-0385             
1 49311U 21090AJ  25007.46142848  .00000078  00000+0  15964-3 0  9993
2 49311  87.9245  19.0457 0001794  85.3790 274.7548 13.20773017160403
ONEWEB-0386             
1 49312U 21090AK  25007.47880305  .00000009  00000+0 -10921-4 0  9996
2 49312  87.9238  19.0234 0001746  80.2938 279.8393 13.20772898160426
